{"type": "FeatureCollection", "features": [{"type": "Feature", "properties": {"norad_id": 26766, "name": "INTELSAT 10 (IS-10)", "group": "intelsat", "lat": -0.9871234834720088, "lon": 54.549241836447365, "alt_km": 36147.462881496045, "timestamp": "2025-12-03T10:52:57.117345+00:00", "meta": {"OBJECT_NAME": "INTELSAT 10 (IS-10)", "OBJECT_ID": "2001-019A", "EPOCH": "2025-12-02T11:35:38.856768", "MEAN_MOTION": 0.99077787, "ECCENTRICITY": 0.00076986, "INCLINATION": 8.6036, "RA_OF_ASC_NODE": 61.2568, "ARG_OF_PERICENTER": 218.3784, "MEAN_ANOMALY": 148.6829, "EPHEMERIS_TYPE": 0, "CLASSIFICATION_TYPE": "U", "NORAD_CAT_ID": 26766, "ELEMENT_SET_NO": 999, "REV_AT_EPOCH": 4363, "BSTAR": 0, "MEAN_MOTION_DOT": -1.25e-06, "MEAN_MOTION_DDOT": 0}, "tle": {"line1": "1 26766U 01019A   25336.48308862 -.00000125  00000+0  00000+0 0  9993", "line2": "2 26766   8.6036  61.2568 0007698 218.3784 148.6829  0.99077787 43631"}}, "geometry": {"type": "Point", "coordinates": [54.549241836447365, -0.9871234834720088]}}, {"type": "Feature", "properties": {"norad_id": 26900, "name": "INTELSAT 902 (IS-902)", "group": "intelsat", "lat": 5.218551517609672, "lon": -174.31519531395068, "alt_km": 35777.92306545239, "timestamp": "2025-12-03T10:52:57.117369+00:00", "meta": {"OBJECT_NAME": "INTELSAT 902 (IS-902)", "OBJECT_ID": "2001-039A", "EPOCH": "2025-12-01T16:59:59.311968", "MEAN_MOTION": 1.00270327, "ECCENTRICITY": 0.00043097, "INCLINATION": 5.6187, "RA_OF_ASC_NODE": 74.2002, "ARG_OF_PERICENTER": 175.119, "MEAN_ANOMALY": 26.3816, "EPHEMERIS_TYPE": 0, "CLASSIFICATION_TYPE": "U", "NORAD_CAT_ID": 26900, "ELEMENT_SET_NO": 999, "REV_AT_EPOCH": 8871, "BSTAR": 0, "MEAN_MOTION_DOT": -2.63e-06, "MEAN_MOTION_DDOT": 0}, "tle": {"line1": "1 26900U 01039A   25335.70832537 -.00000263  00000+0  00000+0 0  9993", "line2": "2 26900   5.6187  74.2002 0004309 175.1190  26.3816  1.00270327 88713"}}, "geometry": {"type": "Point", "coordinates": [-174.31519531395068, 5.218551517609672]}}, {"type": "Feature", "properties": {"norad_id": 27380, "name": "INTELSAT 904 (IS-904)", "group": "intelsat", "lat": 4.699293969988719, "lon": -155.56676238394897, "alt_km": 35783.653031121336, "timestamp": "2025-12-03T10:52:57.117385+00:00", "meta": {"OBJECT_NAME": "INTELSAT 904 (IS-904)", "OBJECT_ID": "2002-007A", "EPOCH": "2025-12-03T03:19:57.878976", "MEAN_MOTION": 1.00269372, "ECCENTRICITY": 0.0001581, "INCLINATION": 6.4293, "RA_OF_ASC_NODE": 71.5412, "ARG_OF_PERICENTER": 200.7188, "MEAN_ANOMALY": 178.4698, "EPHEMERIS_TYPE": 0, "CLASSIFICATION_TYPE": "U", "NORAD_CAT_ID": 27380, "ELEMENT_SET_NO": 999, "REV_AT_EPOCH": 4980, "BSTAR": 0, "MEAN_MOTION_DOT": -2.1e-06, "MEAN_MOTION_DDOT": 0}, "tle": {"line1": "1 27380U 02007A   25337.13886434 -.00000210  00000+0  00000+0 0  9998", "line2": "2 27380   6.4293  71.5412 0001581 200.7188 178.4698  1.00269372 49801"}}, "geometry": {"type": "Point", "coordinates": [-155.56676238394897, 4.699293969988719]}}, {"type": "Feature", "properties": {"norad_id": 27426, "name": "DIRECTV 5 (TEMPO 1)", "group": "intelsat", "lat": 3.2526350271302586, "lon": 125.52647475165342, "alt_km": 35798.06440722506, "timestamp": "2025-12-03T10:52:57.117399+00:00", "meta": {"OBJECT_NAME": "DIRECTV 5 (TEMPO 1)", "OBJECT_ID": "2002-023A", "EPOCH": "2025-12-02T21:49:20.210880", "MEAN_MOTION": 1.00271152, "ECCENTRICITY": 0.0003735, "INCLINATION": 4.375, "RA_OF_ASC_NODE": 77.7678, "ARG_OF_PERICENTER": 188.6813, "MEAN_ANOMALY": 22.7679, "EPHEMERIS_TYPE": 0, "CLASSIFICATION_TYPE": "U", "NORAD_CAT_ID": 27426, "ELEMENT_SET_NO": 999, "REV_AT_EPOCH": 8615, "BSTAR": 0, "MEAN_MOTION_DOT": -3.9e-07, "MEAN_MOTION_DDOT": 0}, "tle": {"line1": "1 27426U 02023A   25336.90926170 -.00000039  00000+0  00000+0 0  9992", "line2": "2 27426   4.3750  77.7678 0003735 188.6813  22.7679  1.00271152 86159"}}, "geometry": {"type": "Point", "coordinates": [125.52647475165342, 3.2526350271302586]}}, {"type": "Feature", "properties": {"norad_id": 27438, "name": "INTELSAT 905 (IS-905)", "group": "intelsat", "lat": 2.7998679168321634, "lon": 98.42686064603001, "alt_km": 35797.56842655425, "timestamp": "2025-12-03T10:52:57.117412+00:00", "meta": {"OBJECT_NAME": "INTELSAT 905 (IS-905)", "OBJECT_ID": "2002-027A", "EPOCH": "2025-12-02T09:56:38.679648", "MEAN_MOTION": 1.00272936, "ECCENTRICITY": 0.00030691, "INCLINATION": 6.2577, "RA_OF_ASC_NODE": 72.1733, "ARG_OF_PERICENTER": 187.1236, "MEAN_ANOMALY": 184.1903, "EPHEMERIS_TYPE": 0, "CLASSIFICATION_TYPE": "U", "NORAD_CAT_ID": 27438, "ELEMENT_SET_NO": 999, "REV_AT_EPOCH": 4939, "BSTAR": 0, "MEAN_MOTION_DOT": 1.12e-06, "MEAN_MOTION_DDOT": 0}, "tle": {"line1": "1 27438U 02027A   25336.41433657  .00000112  00000+0  00000+0 0  9999", "line2": "2 27438   6.2577  72.1733 0003069 187.1236 184.1903  1.00272936 49393"}}, "geometry": {"type": "Point", "coordinates": [98.42686064603001, 2.7998679168321634]}}, {"type": "Feature", "properties": {"norad_id": 27445, "name": "GALAXY 3C (G-3C)", "group": "intelsat", "lat": 2.8146950828500517, "lon": 140.8519117740208, "alt_km": 35781.922654864924, "timestamp": "2025-12-03T10:52:57.117424+00:00", "meta": {"OBJECT_NAME": "GALAXY 3C (G-3C)", "OBJECT_ID": "2002-030A", "EPOCH": "2025-12-02T21:53:42.294048", "MEAN_MOTION": 1.00270323, "ECCENTRICITY": 0.0001283, "INCLINATION": 3.2379, "RA_OF_ASC_NODE": 80.605, "ARG_OF_PERICENTER": 98.4026, "MEAN_ANOMALY": 126.5707, "EPHEMERIS_TYPE": 0, "CLASSIFICATION_TYPE": "U", "NORAD_CAT_ID": 27445, "ELEMENT_SET_NO": 999, "REV_AT_EPOCH": 4452, "BSTAR": 0, "MEAN_MOTION_DOT": -1.34e-06, "MEAN_MOTION_DDOT": 0}, "tle": {"line1": "1 27445U 02030A   25336.91229507 -.00000134  00000+0  00000+0 0  9998", "line2": "2 27445   3.2379  80.6050 0001283  98.4026 126.5707  1.00270323 44521"}}, "geometry": {"type": "Point", "coordinates": [140.8519117740208, 2.8146950828500517]}}, {"type": "Feature", "properties": {"norad_id": 27513, "name": "INTELSAT 906 (IS-906)", "group": "intelsat", "lat": -3.7352319592089334, "lon": -60.18169942949283, "alt_km": 35764.569254931776, "timestamp": "2025-12-03T10:52:57.117470+00:00", "meta": {"OBJECT_NAME": "INTELSAT 906 (IS-906)", "OBJECT_ID": "2002-041A", "EPOCH": "2025-12-02T23:52:51.743712", "MEAN_MOTION": 1.0027309, "ECCENTRICITY": 0.0006114, "INCLINATION": 5.3043, "RA_OF_ASC_NODE": 75.3469, "ARG_OF_PERICENTER": 191.3579, "MEAN_ANOMALY": 227.7367, "EPHEMERIS_TYPE": 0, "CLASSIFICATION_TYPE": "U", "NORAD_CAT_ID": 27513, "ELEMENT_SET_NO": 999, "REV_AT_EPOCH": 8506, "BSTAR": 0, "MEAN_MOTION_DOT": 3e-07, "MEAN_MOTION_DDOT": 0}, "tle": {"line1": "1 27513U 02041A   25336.99504333  .00000030  00000+0  00000+0 0  9991", "line2": "2 27513   5.3043  75.3469 0006114 191.3579 227.7367  1.00273090 85061"}}, "geometry": {"type": "Point", "coordinates": [-60.18169942949283, -3.7352319592089334]}}, {"type": "Feature", "properties": {"norad_id": 27954, "name": "GALAXY 13 (HORIZONS-1)", "group": "intelsat", "lat": 0.0077679163077922185, "lon": 85.74275300305729, "alt_km": 35794.185881295394, "timestamp": "2025-12-03T10:52:57.117487+00:00", "meta": {"OBJECT_NAME": "GALAXY 13 (HORIZONS-1)", "OBJECT_ID": "2003-044A", "EPOCH": "2025-12-03T02:46:08.621184", "MEAN_MOTION": 1.00272394, "ECCENTRICITY": 0.0002072, "INCLINATION": 0.9107, "RA_OF_ASC_NODE": 86.5888, "ARG_OF_PERICENTER": 160.3308, "MEAN_ANOMALY": 76.8191, "EPHEMERIS_TYPE": 0, "CLASSIFICATION_TYPE": "U", "NORAD_CAT_ID": 27954, "ELEMENT_SET_NO": 999, "REV_AT_EPOCH": 4460, "BSTAR": 0, "MEAN_MOTION_DOT": 1.52e-06, "MEAN_MOTION_DDOT": 0}, "tle": {"line1": "1 27954U 03044A   25337.11537756  .00000152  00000+0  00000+0 0  9999", "line2": "2 27954   0.9107  86.5888 0002072 160.3308  76.8191  1.00272394 44605"}}, "geometry": {"type": "Point", "coordinates": [85.74275300305729, 0.0077679163077922185]}}, {"type": "Feature", "properties": {"norad_id": 28358, "name": "INTELSAT 10-02", "group": "intelsat", "lat": -0.01470372066952342, "lon": -125.24602008936067, "alt_km": 35782.79242685571, "timestamp": "2025-12-03T10:52:57.117499+00:00", "meta": {"OBJECT_NAME": "INTELSAT 10-02", "OBJECT_ID": "2004-022A", "EPOCH": "2025-12-02T21:31:38.613216", "MEAN_MOTION": 1.00271044, "ECCENTRICITY": 0.0001134, "INCLINATION": 0.0398, "RA_OF_ASC_NODE": 86.235, "ARG_OF_PERICENTER": 192.2439, "MEAN_ANOMALY": 115.4352, "EPHEMERIS_TYPE": 0, "CLASSIFICATION_TYPE": "U", "NORAD_CAT_ID": 28358, "ELEMENT_SET_NO": 999, "REV_AT_EPOCH": 7858, "BSTAR": 0, "MEAN_MOTION_DOT": 9e-08, "MEAN_MOTION_DDOT": 0}, "tle": {"line1": "1 28358U 04022A   25336.89697469  .00000009  00000+0  00000+0 0  9998", "line2": "2 28358   0.0398  86.2350 0001134 192.2439 115.4352  1.00271044 78589"}}, "geometry": {"type": "Point", "coordinates": [-125.24602008936067, -0.01470372066952342]}}, {"type": "Feature", "properties": {"norad_id": 28626, "name": "XM-3 (RHYTHM)", "group": "intelsat", "lat": -0.07900056132008092, "lon": 34.12729241184267, "alt_km": 36156.846357144685, "timestamp": "2025-12-03T10:52:57.117512+00:00", "meta": {"OBJECT_NAME": "XM-3 (RHYTHM)", "OBJECT_ID": "2005-008A", "EPOCH": "2025-12-02T19:08:10.315104", "MEAN_MOTION": 0.98955046, "ECCENTRICITY": 8.64e-05, "INCLINATION": 0.1467, "RA_OF_ASC_NODE": 80.743, "ARG_OF_PERICENTER": 265.9206, "MEAN_ANOMALY": 173.7506, "EPHEMERIS_TYPE": 0, "CLASSIFICATION_TYPE": "U", "NORAD_CAT_ID": 28626, "ELEMENT_SET_NO": 999, "REV_AT_EPOCH": 4065, "BSTAR": 0, "MEAN_MOTION_DOT": -2.32e-06, "MEAN_MOTION_DDOT": 0}, "tle": {"line1": "1 28626U 05008A   25336.79734161 -.00000232  00000+0  00000+0 0  9990", "line2": "2 28626   0.1467  80.7430 0000864 265.9206 173.7506  0.98955046 40654"}}, "geometry": {"type": "Point", "coordinates": [34.12729241184267, -0.07900056132008092]}}]}